NORAD_CAT_ID,OBJECT_NAME,OBJECT_TYPE,EPOCH,MEAN_MOTION,ECCENTRICITY,INCLINATION,RA_OF_ASC_NODE,ARG_OF_PERICENTER,MEAN_ANOMALY,BSTAR,MEAN_MOTION_DOT,MEAN_MOTION_DDOT,TLE_LINE0,TLE_LINE1,TLE_LINE2,SEMIMAJOR_AXIS,PERIOD,APOGEE,PERIGEE,DECAYED
54192.0,STARLINK-5268,PAYLOAD,2024-03-14 20:05:28,15.08839139,0.0001377,53.2184,7.8369,95.5514,264.5635,8.3107e-05,1.035e-05,0.0,0 STARLINK-5268,1 54192U 22141AM  24074.83713339  .00001035  00000-0  83107-4 0  9997,2 54192  53.2184   7.8369 0001377  95.5514 264.5635 15.08839139 76805,6917.883,95.438,540.701,538.795,0.0
54192.0,STARLINK-5268,PAYLOAD,2024-03-15 00:51:37,15.0884561,0.0001362,53.2191,6.9454,93.7223,266.3925,0.00016735,2.377e-05,0.0,0 STARLINK-5268,1 54192U 22141AM  24075.03584954  .00002377  00000-0  16735-3 0  9991,2 54192  53.2191   6.9454 0001362  93.7223 266.3925 15.08845610 76835,6917.863,95.437,540.67,538.786,0.0
54192.0,STARLINK-5268,PAYLOAD,2024-03-15 19:56:14,15.08842948,0.0001418,53.2195,3.3774,101.6246,258.4905,5.3916e-05,5.7e-06,0.0,0 STARLINK-5268,1 54192U 22141AM  24075.83072908  .00000570  00000-0  53916-4 0  9996,2 54192  53.2195   3.3774 0001418 101.6246 258.4905 15.08842948 76720,6917.871,95.437,540.717,538.755,0.0
54192.0,STARLINK-5268,PAYLOAD,2024-03-16 03:53:10,15.08846497,0.000137,53.2196,1.89,102.1255,257.9891,8.934e-05,1.134e-05,0.0,0 STARLINK-5268,1 54192U 22141AM  24076.16192685  .00001134  00000-0  89340-4 0  9995,2 54192  53.2196   1.8900 0001370 102.1255 257.9891 15.08846497 77001,6917.861,95.437,540.673,538.778,0.0
54192.0,STARLINK-5268,PAYLOAD,2024-03-16 22:57:48,15.08838361,0.0001428,53.2184,358.3193,108.6855,251.4292,-6.9129e-05,-1.388e-05,0.0,0 STARLINK-5268,1 54192U 22141AM  24076.95681256 -.00001388  00000-0 -69129-4 0  9995,2 54192  53.2184 358.3193 0001428 108.6855 251.4292 15.08838361 76894,6917.885,95.438,540.738,538.763,0.0
54192.0,STARLINK-5268,PAYLOAD,2024-03-17 03:43:58,15.08838511,0.0001519,53.2198,357.4279,91.8473,268.2693,-3.5423e-05,-8.52e-06,0.0,0 STARLINK-5268,1 54192U 22141AM  24077.15553311 -.00000852  00000-0 -35423-4 0  9993,2 54192  53.2198 357.4279 0001519  91.8473 268.2693 15.08838511 77152,6917.885,95.438,540.801,538.699,0.0
54192.0,STARLINK-5268,PAYLOAD,2024-03-18 03:34:44,15.0884749,0.0001391,53.2185,352.9659,94.4707,265.6444,0.00020075,2.909e-05,0.0,0 STARLINK-5268,1 54192U 22141AM  24078.14913007  .00002909  00000-0  20075-3 0  9994,2 54192  53.2185 352.9659 0001391  94.4707 265.6444 15.08847490 77305,6917.857,95.437,540.685,538.76,0.0
54192.0,STARLINK-5268,PAYLOAD,2024-03-18 22:39:23,15.08837789,0.0001494,53.2214,349.3922,90.3597,269.7566,8.2331e-05,1.022e-05,0.0,0 STARLINK-5268,1 54192U 22141AM  24078.94401779  .00001022  00000-0  82331-4 0  9999,2 54192  53.2214 349.3922 0001494  90.3597 269.7566 15.08837789 77194,6917.887,95.438,540.786,538.719,0.0
54192.0,STARLINK-5268,PAYLOAD,2024-03-19 00:14:46,15.08837853,0.0001394,53.2209,349.0946,94.8909,265.2242,7.9612e-05,9.79e-06,0.0,0 STARLINK-5268,1 54192U 22141AM  24079.01025749  .00000979  00000-0  79612-4 0  9995,2 54192  53.2209 349.0946 0001394  94.8909 265.2242 15.08837853 77437,6917.887,95.438,540.716,538.788,0.0
54192.0,STARLINK-5268,PAYLOAD,2024-03-20 00:05:32,15.08858614,0.0001465,53.2192,344.6451,65.0886,295.0258,0.00040498,6.166e-05,0.0,0 STARLINK-5268,1 54192U 22141AM  24080.00385050  .00006166  00000-0  40498-3 0  9993,2 54192  53.2192 344.6451 0001465  65.0886 295.0258 15.08858614 77585,6917.823,95.436,540.702,538.675,0.0
54192.0,STARLINK-5268,PAYLOAD,2024-03-20 03:16:18,15.08863297,0.0001452,53.2202,344.0441,79.6818,280.4338,0.00047174,7.232e-05,0.0,0 STARLINK-5268,1 54192U 22141AM  24080.13632673  .00007232  00000-0  47174-3 0  9996,2 54192  53.2202 344.0441 0001452  79.6818 280.4338 15.08863297 77379,6917.809,95.436,540.679,538.67,0.0
54192.0,STARLINK-5268,PAYLOAD,2024-03-20 20:45:35,15.08819879,0.0001235,53.2196,340.7778,59.912,300.1995,-0.00028737,-4.856e-05,0.0,0 STARLINK-5268,1 54192U 22141AM  24080.86498936 -.00004856  00000-0 -28737-3 0  9993,2 54192  53.2196 340.7778 0001235  59.9120 300.1995 15.08819879 77717,6917.942,95.439,540.661,538.953,0.0
54192.0,STARLINK-5268,PAYLOAD,2024-03-20 22:20:58,15.08819726,0.0001211,53.2182,340.4782,97.0433,263.0696,-0.00026473,-4.496e-05,0.0,0 STARLINK-5268,1 54192U 22141AM  24080.93122742 -.00004496  00000-0 -26473-3 0  9995,2 54192  53.2182 340.4782 0001211  97.0433 263.0696 15.08819726 77499,6917.942,95.439,540.645,538.97,0.0
54192.0,STARLINK-5268,PAYLOAD,2024-03-20 23:56:21,15.08816581,0.0001336,53.2179,340.1818,129.0066,231.1045,-0.00015158,-2.698e-05,0.0,0 STARLINK-5268,1 54192U 22141AM  24080.99746823 -.00002698  00000-0 -15158-3 0  9993,2 54192  53.2179 340.1818 0001336 129.0066 231.1045 15.08816581 77500,6917.952,95.439,540.741,538.893,0.0
54192.0,STARLINK-5268,PAYLOAD,2024-03-21 20:36:23,15.08839432,0.0001195,53.2187,336.317,105.6587,254.4537,0.00071983,0.00011187,0.0,0 STARLINK-5268,1 54192U 22141AM  24081.85860046  .00011187  00000-0  71983-3 0  9992,2 54192  53.2187 336.3170 0001195 105.6587 254.4537 15.08839432 77861,6917.882,95.438,540.574,538.92,0.0
54192.0,STARLINK-5268,PAYLOAD,2024-03-21 22:11:46,15.08841452,0.0001273,53.2187,336.0197,108.0772,252.0359,0.00079114,0.00012326,0.0,0 STARLINK-5268,1 54192U 22141AM  24081.92484086  .00012326  00000-0  79114-3 0  9996,2 54192  53.2187 336.0197 0001273 108.0772 252.0359 15.08841452 77644,6917.876,95.437,540.622,538.86,0.0
54192.0,STARLINK-5268,PAYLOAD,2024-03-22 02:57:54,15.08878655,8.84e-05,53.2188,335.1266,87.4166,272.6928,0.0023574,0.00037469,0.0,0 STARLINK-5268,1 54192U 22141AM  24082.12355145  .00037469  00000-0  23574-2 0  9995,2 54192  53.2188 335.1266 0000884  87.4166 272.6928 15.08878655 77900,6917.762,95.435,540.239,539.016,0.0
54192.0,STARLINK-5268,PAYLOAD,2024-03-22 20:27:07,15.08857426,0.0002408,53.2183,331.8567,132.3952,227.7244,-2.9981e-05,-7.66e-06,0.0,0 STARLINK-5268,1 54192U 22141AM  24082.85216917 -.00000766  00000-0 -29981-4 0  9990,2 54192  53.2183 331.8567 0002408 132.3952 227.7244 15.08857426 78017,6917.827,95.436,541.358,538.026,0.0
54192.0,STARLINK-5268,PAYLOAD,2024-03-22 22:02:30,15.08847947,0.0001282,53.2184,331.5625,81.5975,278.5163,-0.00024625,-4.206e-05,0.0,0 STARLINK-5268,1 54192U 22141AM  24082.91841277 -.00004206  00000-0 -24625-3 0  9992,2 54192  53.2184 331.5625 0001282  81.5975 278.5163 15.08847947 77794,6917.856,95.437,540.608,538.834,0.0
54192.0,STARLINK-5268,PAYLOAD,2024-03-23 20:17:54,15.08828221,0.0002082,53.2176,327.3927,109.2058,250.9159,-0.00095417,-0.00015437,0.0,0 STARLINK-5268,1 54192U 22141AM  24083.84576682 -.00015437  00000-0 -95417-3 0  9995,2 54192  53.2176 327.3927 0002082 109.2058 250.9159 15.08828221 78167,6917.916,95.438,541.222,538.341,0.0
54192.0,STARLINK-5268,PAYLOAD,2024-03-23 21:53:17,15.08833494,0.0001717,53.2183,327.0921,115.5311,244.5859,-0.00068735,-0.00011209,0.0,0 STARLINK-5268,1 54192U 22141AM  24083.91201064 -.00011209  00000-0 -68735-3 0  9998,2 54192  53.2183 327.0921 0001717 115.5311 244.5859 15.08833494 77941,6917.9,95.438,540.953,538.577,0.0
54192.0,STARLINK-5268,PAYLOAD,2024-03-24 02:39:26,15.0884749,0.0001429,53.2171,326.204,121.2815,238.8318,-0.00031906,-5.363e-05,0.0,0 STARLINK-5268,1 54192U 22141AM  24084.11072588 -.00005363  00000-0 -31906-3 0  9992,2 54192  53.2171 326.2040 0001429 121.2815 238.8318 15.08847490 78201,6917.857,95.437,540.711,538.734,0.0
54192.0,STARLINK-5268,PAYLOAD,2024-03-24 21:44:05,15.08848997,0.000141,53.2171,322.6337,100.118,259.9971,0.00051655,7.944e-05,0.0,0 STARLINK-5268,1 54192U 22141AM  24084.90561393  .00007944  00000-0  51655-3 0  9994,2 54192  53.2171 322.6337 0001410 100.1180 259.9971 15.08848997 78090,6917.853,95.437,540.693,538.742,0.0
54192.0,STARLINK-5268,PAYLOAD,2024-03-25 00:54:50,15.08864275,0.0001627,53.2171,322.0441,112.6368,247.4796,0.00067491,0.00010477,0.0,0 STARLINK-5268,1 54192U 22141AM  24085.03808883  .00010477  00000-0  67491-3 0  9997,2 54192  53.2171 322.0441 0001627 112.6368 247.4796 15.08864275 78348,6917.806,95.436,540.797,538.546,0.0
54192.0,STARLINK-5268,PAYLOAD,2024-03-25 08:51:46,15.08840434,0.0001501,53.2186,320.5524,94.1405,265.9759,0.00039274,5.968e-05,0.0,0 STARLINK-5268,1 54192U 22141AM  24085.36929385  .00005968  00000-0  39274-3 0  9991,2 54192  53.2186 320.5524 0001501  94.1405 265.9759 15.08840434 78396,6917.879,95.438,540.782,538.706,0.0
54192.0,STARLINK-5268,PAYLOAD,2024-03-25 21:34:52,15.08839226,0.0001317,53.2157,318.1797,85.2138,274.9004,0.00015077,2.112e-05,0.0,0 STARLINK-5268,1 54192U 22141AM  24085.89921651  .00002112  00000-0  15077-3 0  9990,2 54192  53.2157 318.1797 0001317  85.2138 274.9004 15.08839226 78242,6917.883,95.438,540.659,538.837,0.0
54192.0,STARLINK-5268,PAYLOAD,2024-03-26 08:42:34,15.0883694,0.0001562,53.2187,316.092,90.6169,269.5003,4.0101e-05,3.5e-06,0.0,0 STARLINK-5268,1 54192U 22141AM  24086.36289994  .00000350  00000-0  40101-4 0  9999,2 54192  53.2187 316.0920 0001562  90.6169 269.5003 15.08836940 78548,6917.89,95.438,540.835,538.674,0.0
54192.0,STARLINK-5268,PAYLOAD,2024-03-26 21:25:40,15.08812901,0.0001413,53.2174,313.715,102.9017,257.2133,-0.00039722,-6.599e-05,0.0,0 STARLINK-5268,1 54192U 22141AM  24086.89283455 -.00006599  00000-0 -39722-3 0  9992,2 54192  53.2174 313.7150 0001413 102.9017 257.2133 15.08812901 78625,6917.963,95.439,540.806,538.851,0.0
54192.0,STARLINK-5268,PAYLOAD,2024-03-27 08:33:23,15.08826063,9.97e-05,53.2187,311.6321,131.0058,229.102,-1.3079e-05,-4.96e-06,0.0,0 STARLINK-5268,1 54192U 22141AM  24087.35651626 -.00000496  00000-0 -13079-4 0  9991,2 54192  53.2187 311.6321 0000997 131.0058 229.1020 15.08826063 78694,6917.923,95.438,540.478,539.098,0.0
54192.0,STARLINK-5268,PAYLOAD,2024-03-27 21:16:27,15.08844815,0.0001422,53.2169,309.2554,102.4446,257.6705,0.00038477,5.842e-05,0.0,0 STARLINK-5268,1 54192U 22141AM  24087.88643256  .00005842  00000-0  38477-3 0  9995,2 54192  53.2169 309.2554 0001422 102.4446 257.6705 15.08844815 78772,6917.866,95.437,540.714,538.747,0.0
